[ {"OBJECT_NAME": "NAVSTAR 49 (USA 154)", "NORAD_CAT_ID": 26605, "MEAN_MOTION": 2.00568567, "ECCENTRICITY": 0.017416, "INCLINATION": 55.5896, "RA_OF_ASC_NODE": 97.4631, "ARG_OF_PERICENTER": 266.1498, "MEAN_ANOMALY": 128.1933, "BSTAR": 0.0, "EPOCH": "2026-04-14T15:03:25"}, {"OBJECT_NAME": "NAVSTAR 52 (USA 168)", "NORAD_CAT_ID": 27704, "MEAN_MOTION": 1.94743125, "ECCENTRICITY": 0.0003976, "INCLINATION": 54.8515, "RA_OF_ASC_NODE": 327.6112, "ARG_OF_PERICENTER": 354.3845, "MEAN_ANOMALY": 237.626, "BSTAR": 0.0, "EPOCH": "2026-04-12T22:56:41"}, {"OBJECT_NAME": "NAVSTAR 53 (USA 175)", "NORAD_CAT_ID": 28129, "MEAN_MOTION": 1.92678446, "ECCENTRICITY": 0.0002881, "INCLINATION": 54.9905, "RA_OF_ASC_NODE": 25.636, "ARG_OF_PERICENTER": 324.6611, "MEAN_ANOMALY": 35.3253, "BSTAR": 0.0, "EPOCH": "2026-04-14T05:06:49"}, {"OBJECT_NAME": "NAVSTAR 55 (USA 178)", "NORAD_CAT_ID": 28361, "MEAN_MOTION": 2.00553909, "ECCENTRICITY": 0.0160382, "INCLINATION": 54.8209, "RA_OF_ASC_NODE": 89.2845, "ARG_OF_PERICENTER": 299.9673, "MEAN_ANOMALY": 149.9417, "BSTAR": 0.0, "EPOCH": "2026-04-14T10:40:44"}, {"OBJECT_NAME": "NAVSTAR 63 (USA 203)", "NORAD_CAT_ID": 34661, "MEAN_MOTION": 2.00554809, "ECCENTRICITY": 0.0144598, "INCLINATION": 54.4954, "RA_OF_ASC_NODE": 213.3585, "ARG_OF_PERICENTER": 61.5667, "MEAN_ANOMALY": 299.5936, "BSTAR": 0.0, "EPOCH": "2026-04-10T17:51:32"}, {"OBJECT_NAME": "MUOS-1", "NORAD_CAT_ID": 38093, "MEAN_MOTION": 1.00270946, "ECCENTRICITY": 0.0059377, "INCLINATION": 5.347, "RA_OF_ASC_NODE": 47.1836, "ARG_OF_PERICENTER": 0.6008, "MEAN_ANOMALY": 197.4742, "BSTAR": 0.0, "EPOCH": "2026-04-14T09:30:38"}, {"OBJECT_NAME": "MUOS-2", "NORAD_CAT_ID": 39206, "MEAN_MOTION": 1.00268754, "ECCENTRICITY": 0.0050751, "INCLINATION": 4.87, "RA_OF_ASC_NODE": 45.4126, "ARG_OF_PERICENTER": 181.4589, "MEAN_ANOMALY": 20.4787, "BSTAR": 0.0, "EPOCH": "2026-04-14T15:30:04"}, {"OBJECT_NAME": "MUOS-3", "NORAD_CAT_ID": 40374, "MEAN_MOTION": 1.0027101, "ECCENTRICITY": 0.0051268, "INCLINATION": 4.3995, "RA_OF_ASC_NODE": 43.2067, "ARG_OF_PERICENTER": 182.2591, "MEAN_ANOMALY": 115.3228, "BSTAR": 0.0, "EPOCH": "2026-04-14T10:14:38"}, {"OBJECT_NAME": "MUOS-4", "NORAD_CAT_ID": 40887, "MEAN_MOTION": 1.00271717, "ECCENTRICITY": 0.00598, "INCLINATION": 4.2106, "RA_OF_ASC_NODE": 41.8029, "ARG_OF_PERICENTER": 0.9324, "MEAN_ANOMALY": 50.5271, "BSTAR": 0.0, "EPOCH": "2026-04-14T11:42:38"}, {"OBJECT_NAME": "MUOS-5", "NORAD_CAT_ID": 41622, "MEAN_MOTION": 1.00272214, "ECCENTRICITY": 0.0194656, "INCLINATION": 2.3434, "RA_OF_ASC_NODE": 300.4845, "ARG_OF_PERICENTER": 261.9296, "MEAN_ANOMALY": 99.3246, "BSTAR": 0.0, "EPOCH": "2026-04-14T13:35:26"}, {"OBJECT_NAME": "WGS F1 (USA 195)", "NORAD_CAT_ID": 32258, "MEAN_MOTION": 1.00269908, "ECCENTRICITY": 2.46e-05, "INCLINATION": 0.0747, "RA_OF_ASC_NODE": 80.9658, "ARG_OF_PERICENTER": 171.3061, "MEAN_ANOMALY": 30.6847, "BSTAR": 0.0, "EPOCH": "2026-04-14T08:11:38"}, {"OBJECT_NAME": "WGS F2 (USA 204)", "NORAD_CAT_ID": 34713, "MEAN_MOTION": 1.00270533, "ECCENTRICITY": 2.67e-05, "INCLINATION": 0.0181, "RA_OF_ASC_NODE": 223.849, "ARG_OF_PERICENTER": 288.5526, "MEAN_ANOMALY": 279.4204, "BSTAR": 0.0, "EPOCH": "2026-04-14T11:26:38"}, {"OBJECT_NAME": "WGS F3 (USA 211)", "NORAD_CAT_ID": 36108, "MEAN_MOTION": 1.00287282, "ECCENTRICITY": 6.6e-05, "INCLINATION": 0.3927, "RA_OF_ASC_NODE": 85.2949, "ARG_OF_PERICENTER": 239.3499, "MEAN_ANOMALY": 235.2301, "BSTAR": 0.0, "EPOCH": "2026-04-14T08:29:13"}, {"OBJECT_NAME": "WGS F4 (USA 233)", "NORAD_CAT_ID": 38070, "MEAN_MOTION": 1.00271737, "ECCENTRICITY": 1.42e-05, "INCLINATION": 0.0086, "RA_OF_ASC_NODE": 211.9897, "ARG_OF_PERICENTER": 183.8362, "MEAN_ANOMALY": 58.3918, "BSTAR": 0.0, "EPOCH": "2026-04-14T10:52:38"}, {"OBJECT_NAME": "WGS F5 (USA 243)", "NORAD_CAT_ID": 39168, "MEAN_MOTION": 1.00270046, "ECCENTRICITY": 6.1e-06, "INCLINATION": 0.0187, "RA_OF_ASC_NODE": 225.7482, "ARG_OF_PERICENTER": 274.1778, "MEAN_ANOMALY": 192.0224, "BSTAR": 0.0, "EPOCH": "2026-04-14T12:07:06"}, {"OBJECT_NAME": "WGS F6 (USA 244)", "NORAD_CAT_ID": 39222, "MEAN_MOTION": 1.0027058, "ECCENTRICITY": 2.75e-05, "INCLINATION": 0.0171, "RA_OF_ASC_NODE": 218.5966, "ARG_OF_PERICENTER": 32.8439, "MEAN_ANOMALY": 56.3341, "BSTAR": 0.0, "EPOCH": "2026-04-14T16:00:29"}, {"OBJECT_NAME": "WGS F7 (USA 263)", "NORAD_CAT_ID": 40746, "MEAN_MOTION": 1.00272419, "ECCENTRICITY": 9.97e-05, "INCLINATION": 0.0143, "RA_OF_ASC_NODE": 231.7911, "ARG_OF_PERICENTER": 251.9153, "MEAN_ANOMALY": 323.3141, "BSTAR": 0.0, "EPOCH": "2026-04-14T04:38:41"}, {"OBJECT_NAME": "WGS F8 (USA 272)", "NORAD_CAT_ID": 41879, "MEAN_MOTION": 1.00270418, "ECCENTRICITY": 0.0001023, "INCLINATION": 0.0126, "RA_OF_ASC_NODE": 238.3162, "ARG_OF_PERICENTER": 285.9672, "MEAN_ANOMALY": 178.4736, "BSTAR": 0.0, "EPOCH": "2026-04-13T23:23:13"}, {"OBJECT_NAME": "WGS F9 (USA 275)", "NORAD_CAT_ID": 42075, "MEAN_MOTION": 1.00272253, "ECCENTRICITY": 1.38e-05, "INCLINATION": 0.0085, "RA_OF_ASC_NODE": 213.7946, "ARG_OF_PERICENTER": 258.2115, "MEAN_ANOMALY": 186.1908, "BSTAR": 0.0, "EPOCH": "2026-04-14T07:10:41"}, {"OBJECT_NAME": "WGS 10 (USA 291)", "NORAD_CAT_ID": 44071, "MEAN_MOTION": 1.0026955, "ECCENTRICITY": 4.83e-05, "INCLINATION": 0.0171, "RA_OF_ASC_NODE": 214.8822, "ARG_OF_PERICENTER": 118.4212, "MEAN_ANOMALY": 165.5738, "BSTAR": 0.0, "EPOCH": "2026-04-14T15:43:00"}, {"OBJECT_NAME": "TANDEM-X", "NORAD_CAT_ID": 36605, "MEAN_MOTION": 15.1915289, "ECCENTRICITY": 0.0001822, "INCLINATION": 97.4461, "RA_OF_ASC_NODE": 113.1111, "ARG_OF_PERICENTER": 96.3159, "MEAN_ANOMALY": 263.8283, "BSTAR": 6.2437e-06, "EPOCH": "2026-04-14T11:55:49"}, {"OBJECT_NAME": "GAOFEN-11 04", "NORAD_CAT_ID": 54818, "MEAN_MOTION": 15.23628273, "ECCENTRICITY": 0.0005959, "INCLINATION": 97.4123, "RA_OF_ASC_NODE": 238.541, "ARG_OF_PERICENTER": 155.135, "MEAN_ANOMALY": 205.0176, "BSTAR": 0.00014499, "EPOCH": "2026-04-14T14:28:12"}]