NAVSTAR 49 (USA 154)
1 26605U 00071A   26104.62737650  .00000072  00000+0  00000+0 0  9993
2 26605  55.5896  97.4631 0174160 266.1498 128.1933  2.00568567186241
NAVSTAR 52 (USA 168)
1 27704U 03010A   26102.95603955 -.00000049  00000+0  00000+0 0  9999
2 27704  54.8515 327.6112 0003976 354.3845 237.6260  1.94743125168646
NAVSTAR 53 (USA 175)
1 28129U 03058A   26104.21307476 -.00000076  00000+0  00000+0 0  9993
2 28129  54.9905  25.6360 0002881 324.6611  35.3253  1.92678446163233
NAVSTAR 55 (USA 178)
1 28361U 04023A   26104.44496488  .00000055  00000+0  00000+0 0  9997
2 28361  54.8209  89.2845 0160382 299.9673 149.9417  2.00553909159767
WGS F1 (USA 195)
1 32258U 07046A   26104.34141941 -.00000263  00000+0  00000+0 0  9997
2 32258   0.0747  80.9658 0000246 171.3061  30.6847  1.00269908 51691
NAVSTAR 63 (USA 203)
1 34661U 09014A   26100.74412674 -.00000012  00000+0  00000+0 0  9990
2 34661  54.4954 213.3585 0144598  61.5667 299.5936  2.00554809124926
WGS F2 (USA 204)
1 34713U 09017A   26104.47683584  .00000000  00000+0  00000+0 0  9991
2 34713   0.0181 223.8490 0000267 288.5526 279.4204  1.00270533 44972
WGS F3 (USA 211)
1 36108U 09068A   26104.35363041  .00000067  00000+0  00000+0 0  9990
2 36108   0.3927  85.2949 0000660 239.3499 235.2301  1.00287282 45958
TANDEM-X
1 36605U 10030A   26104.49709548  .00000064  00000+0  62437-5 0  9999
2 36605  97.4461 113.1111 0001822  96.3159 263.8283 15.19152890876978
WGS F4 (USA 233)
1 38070U 12003A   26104.45322569 -.00000211  00000+0  00000+0 0  9996
2 38070   0.0086 211.9897 0000142 183.8362  58.3918  1.00271737 43503
MUOS-1
1 38093U 12009A   26104.39627845 -.00000119  00000+0  00000+0 0  9992
2 38093   5.3470  47.1836 0059377   0.6008 197.4742  1.00270946 51805
WGS F5 (USA 243)
1 39168U 13024A   26104.50493207 -.00000280  00000+0  00000+0 0  9999
2 39168   0.0187 225.7482 0000061 274.1778 192.0224  1.00270046 46536
MUOS-2
1 39206U 13036A   26104.64588153 -.00000005  00000+0  00000+0 0  9990
2 39206   4.8700  45.4126 0050751 181.4589  20.4787  1.00268754 46558
WGS F6 (USA 244)
1 39222U 13041A   26104.66700943  .00000000  00000+0  00000+0 0  9993
2 39222   0.0171 218.5966 0000275  32.8439  56.3341  1.00270580 45429
MUOS-3
1 40374U 15002A   26104.42683466 -.00000121  00000+0  00000+0 0  9991
2 40374   4.3995  43.2067 0051268 182.2591 115.3228  1.00271010 40943
WGS F7 (USA 263)
1 40746U 15036A   26104.19353608  .00000022  00000+0  00000+0 0  9996
2 40746   0.0143 231.7911 0000997 251.9153 323.3141  1.00272419 39225
MUOS-4
1 40887U 15044A   26104.48794565 -.00000085  00000+0  00000+0 0  9994
2 40887   4.2106  41.8029 0059800   0.9324  50.5271  1.00271717 38924
MUOS-5
1 41622U 16041A   26104.56627609 -.00000123  00000+0  00000+0 0  9996
2 41622   2.3434 300.4845 0194656 261.9296  99.3246  1.00272214 36453
WGS F8 (USA 272)
1 41879U 16075A   26103.97445902 -.00000199  00000+0  00000+0 0  9998
2 41879   0.0126 238.3162 0001023 285.9672 178.4736  1.00270418 34174
WGS F9 (USA 275)
1 42075U 17016A   26104.29909649 -.00000092  00000+0  00000+0 0  9994
2 42075   0.0085 213.7946 0000138 258.2115 186.1908  1.00272253 33259
WGS 10 (USA 291)
1 44071U 19014A   26104.65487234  .00000000  00000+0  00000+0 0  9991
2 44071   0.0171 214.8822 0000483 118.4212 165.5738  1.00269550 25985
GAOFEN-11 04
1 54818U 22176A   26104.60292080  .00003403  00000+0  14499-3 0  9993
2 54818  97.4123 238.5410 0005959 155.1350 205.0176 15.23628273183579
